{
  "type": "FeatureCollection",
  "features": [
    {
      "type": "Feature",
      "properties": {
        "norad_id": 64902,
        "name": "CO3D 2",
        "group": "resource",
        "lat": 75.40182205875679,
        "lon": 31.230730235092928,
        "alt_km": 503.18750092557,
        "timestamp": "2025-12-10T23:33:12.484760+00:00",
        "meta_object_name": "CO3D 2",
        "meta_object_id": "2025-156D",
        "meta_epoch": "2025-12-09T12:27:23.938848",
        "meta_mean_motion": 15.20057842,
        "meta_eccentricity": 0.00090681,
        "meta_inclination": 97.4213,
        "meta_ra_of_asc_node": 59.8234,
        "meta_arg_of_pericenter": 303.4369,
        "meta_mean_anomaly": 56.5998,
        "meta_ephemeris_type": 0,
        "meta_classification_type": "U",
        "meta_norad_cat_id": 64902,
        "meta_element_set_no": 999,
        "meta_rev_at_epoch": 2071,
        "meta_bstar": 0.00028838885,
        "meta_mean_motion_dot": 6.16e-05,
        "meta_mean_motion_ddot": 0,
        "tle_line1": "1 64902U 25156D   25343.51902707  .00006160  00000+0  28839-3 0  9993",
        "tle_line2": "2 64902  97.4213  59.8234 0009068 303.4369  56.5998 15.20057842 20717"
      },
      "geometry": {
        "type": "Point",
        "coordinates": [
          31.230730235092928,
          75.40182205875679
        ]
      }
    },
    {
      "type": "Feature",
      "properties": {
        "norad_id": 64903,
        "name": "CO3D 1",
        "group": "resource",
        "lat": 75.44302420564492,
        "lon": 31.08618113424984,
        "alt_km": 497.44337259835356,
        "timestamp": "2025-12-10T23:33:12.484768+00:00",
        "meta_object_name": "CO3D 1",
        "meta_object_id": "2025-156E",
        "meta_epoch": "2025-12-10T15:18:55.278720",
        "meta_mean_motion": 15.20203269,
        "meta_eccentricity": 9.561e-05,
        "meta_inclination": 97.4339,
        "meta_ra_of_asc_node": 60.9342,
        "meta_arg_of_pericenter": 98.3526,
        "meta_mean_anomaly": 261.7818,
        "meta_ephemeris_type": 0,
        "meta_classification_type": "U",
        "meta_norad_cat_id": 64903,
        "meta_element_set_no": 999,
        "meta_rev_at_epoch": 2088,
        "meta_bstar": 0.00042870349,
        "meta_mean_motion_dot": 9.225e-05,
        "meta_mean_motion_ddot": 0,
        "tle_line1": "1 64903U 25156E   25344.63813980  .00009225  00000+0  42870-3 0  9998",
        "tle_line2": "2 64903  97.4339  60.9342 0000956  98.3526 261.7818 15.20203269 20887"
      },
      "geometry": {
        "type": "Point",
        "coordinates": [
          31.08618113424984,
          75.44302420564492
        ]
      }
    },
    {
      "type": "Feature",
      "properties": {
        "norad_id": 66514,
        "name": "SENTINEL-6B",
        "group": "resource",
        "lat": -64.65808487544665,
        "lon": 96.20555834145114,
        "alt_km": 1315.7413849265913,
        "timestamp": "2025-12-10T23:33:12.484778+00:00",
        "meta_object_name": "SENTINEL-6B",
        "meta_object_id": "2025-264A",
        "meta_epoch": "2025-12-08T23:22:28.384896",
        "meta_mean_motion": 12.84031992,
        "meta_eccentricity": 0.00210406,
        "meta_inclination": 66.0385,
        "meta_ra_of_asc_node": 170.2707,
        "meta_arg_of_pericenter": 268.23,
        "meta_mean_anomaly": 91.6307,
        "meta_ephemeris_type": 0,
        "meta_classification_type": "U",
        "meta_norad_cat_id": 66514,
        "meta_element_set_no": 999,
        "meta_rev_at_epoch": 280,
        "meta_bstar": 0.000106025,
        "meta_mean_motion_dot": -3.6e-07,
        "meta_mean_motion_ddot": 0,
        "tle_line1": "1 66514U 25264A   25342.97393964 -.00000036  00000+0  10602-3 0  9998",
        "tle_line2": "2 66514  66.0385 170.2707 0021040 268.2300  91.6307 12.84031992  2809"
      },
      "geometry": {
        "type": "Point",
        "coordinates": [
          96.20555834145114,
          -64.65808487544665
        ]
      }
    }
  ]
}